LAYAN-23                
1 56939U 23084H   23328.58173491  .00019871  00000+0  99024-3 0  9997
2 56939  97.5242  83.2205 0008697  19.9884 340.1688 15.17559859 24935
AFRL-XVI                
1 56942U 23084L   23328.31579621  .00017680  00000+0  88860-3 0  9999
2 56942  97.5278  83.0298 0009865  21.7285 338.4364 15.17278438 24899
BLACKJACK ACES-3        
1 56950U 23084U   23328.28983849  .00010065  00000+0  52816-3 0  9997
2 56950  97.5266  82.8751 0011453  10.6888 349.4586 15.15882551 24880
QPS-SAR-6 AMATERU-III   
1 56951U 23084V   23328.53378689  .00026079  00000+0  12322-2 0  9995
2 56951  97.5252  83.4518 0010007   6.0488 354.0865 15.19347885 24942
BLACKJACK ACES-4        
1 56952U 23084W   23328.32222035  .00014014  00000+0  71951-3 0  9996
2 56952  97.5262  82.9721 0012015  11.8855 348.2659 15.16561115 24898
BLACKJACK ACES-2        
1 56955U 23084Z   23328.28735013  .00013400  00000+0  70337-3 0  9994
2 56955  97.5266  82.8627 0012374  13.5292 346.6270 15.15787428 24887
BLACKJACK ACES-1        
1 56956U 23084AA  23328.32198039  .00016111  00000+0  82628-3 0  9999
2 56956  97.5251  82.9873 0012688  17.7792 342.3883 15.16560149 24899
ION SCV-011             
1 56957U 23084AB  23328.32682332  .00001435  00000+0  21961-3 0  9990
2 56957  98.0405  84.1133 0070782 243.1216 116.2746 14.73668695 24427
GHOST-3                 
1 56958U 23084AC  23328.47346067  .00010260  00000+0  53938-3 0  9994
2 56958  97.5268  83.0933 0013217  14.7564 345.4052 15.15791051 24913
PHOTON-04               
1 56959U 23084AD  23328.27837816  .00009684  00000+0  51051-3 0  9992
2 56959  97.5266  82.8859 0013366  16.2380 343.9278 15.15708937 24884
TOMORROW-R2             
1 56962U 23084AG  23328.29976648  .00011352  00000+0  58365-3 0  9995
2 56962  97.5258  83.0043 0013292  13.6342 346.5247 15.16551108 24897
AFR-1                   
1 56964U 23084AJ  23328.50479289  .00005283  00000+0  28650-3 0  9990
2 56964  97.5284  83.0745 0014503  13.9151 346.2478 15.14913253 24911
DROID.001               
1 56965U 23084AK  23328.28662864  .00012571  00000+0  64217-3 0  9996
2 56965  97.5244  82.9855 0013151   9.1003 351.0466 15.16751739 24898
MUSAT1                  
1 56967U 23084AM  23328.33070341  .00027356  00000+0  12632-2 0  9997
2 56967  97.5232  83.3848 0012044   5.4269 354.7094 15.20111142 24921
AII-DELTA               
1 56987U 23084BH  23328.51280350  .00021533  00000+0  10089-2 0  9997
2 56987  97.5199  83.5276 0013500 356.4090   3.7046 15.19642031 24956
SPEI SATELLES           
1 56991U 23084BT  23328.26043072  .00018610  00000+0  90271-3 0  9996
2 56991  97.5222  83.1295 0011310 359.7820   0.3407 15.18494389 24908
URESAT-1                
1 56992U 23084BU  23328.25644393  .00020731  00000+0  10498-2 0  9998
2 56992  97.5192  82.6177 0016531  28.0669 332.1452 15.16900815 24860
MRC-100                 
1 56993U 23084BV  23328.30912556  .00021896  00000+0  10955-2 0  9995
2 56993  97.5193  82.7136 0016285  27.7539 332.4559 15.17316116 24885
METEOR-M2 3             
1 57166U 23091A   23328.57406228  .00000064  00000+0  47232-4 0  9993
2 57166  98.7448  19.7737 0004200  21.1942 338.9410 14.23856241 21362
STRATOSAT-TK 1 (RS52S)  
1 57167U 23091B   23328.59123155  .00012435  00000+0  84824-3 0  9993
2 57167  97.6455  17.9083 0018854 101.1213 259.2135 15.06215196 22554
UMKA 1 (RS40S)          
1 57172U 23091G   23328.57321251  .00006285  00000+0  44741-3 0  9994
2 57172  97.6439  17.7778 0018938 100.8415 259.4944 15.04833566 22548
2023-091H               
1 57173U 23091H   23328.60542368  .00008083  00000+0  57545-3 0  9997
2 57173  97.6460  17.7349 0017824 109.2439 251.0717 15.04756003 22545
2023-091J               
1 57174U 23091J   23328.56873393  .00004161  00000+0  30508-3 0  9991
2 57174  97.6436  17.6247 0017220 109.5121 250.7966 15.03947462 22537
CUBEBEL 2 (EU11S)       
1 57175U 23091K   23328.55111079  .00008713  00000+0  62160-3 0  9993
2 57175  97.6455  17.6442 0017534 112.1916 248.1173 15.04657798 22538
SITRO-AIS 5 (KATYS)     
1 57176U 23091L   23328.59252098  .00007635  00000+0  54129-3 0  9993
2 57176  97.6465  17.7712 0020787 101.0991 259.2574 15.04888643 22549
ZORKIY 2M               
1 57177U 23091M   23328.58261255  .00005948  00000+0  42366-3 0  9993
2 57177  97.6462  17.8032 0020140  96.9078 263.4440 15.04816713 22542
CUBESX-HSE 3 (RS42S)    
1 57178U 23091N   23328.57067299  .00008518  00000+0  59933-3 0  9999
2 57178  97.6477  17.8544 0019764  96.1116 264.2363 15.05149605 22545
MONITOR-3 (RS58S)       
1 57180U 23091Q   23328.58028786  .00007246  00000+0  51290-3 0  9996
2 57180  97.6473  17.8309 0020227  96.2154 264.1377 15.04975119 22542
MONITOR-4 (RS57S)       
1 57182U 23091S   23328.58114983  .00007212  00000+0  51058-3 0  9998
2 57182  97.6468  17.8196 0020299  96.8461 263.5075 15.04969435 22540
MONITOR-2 (RS39S)       
1 57184U 23091U   23328.58002027  .00005003  00000+0  35282-3 0  9992
2 57184  97.6474  17.9812 0016312  90.9535 269.3561 15.05324474 22557
SVYATOBOR 1 (RS60S)     
1 57187U 23091X   23328.54403855  .00007262  00000+0  50158-3 0  9993
2 57187  97.6491  18.0300 0016180  89.4154 270.8927 15.05948445 22559
HORS 1                  
1 57188U 23091Y   23328.60640945  .00007283  00000+0  50247-3 0  9996
2 57188  97.6472  18.0742 0016002  91.1518 269.1542 15.05991542 22567
VIZARD-METEO (RS38S)    
1 57189U 23091Z   23328.56619067  .00009725  00000+0  65889-3 0  9994
2 57189  97.6472  18.1394 0014766  87.8738 272.4180 15.06592852 22560
NANOZOND 1 (RS49S)      
1 57190U 23091AA  23328.58698553  .00011417  00000+0  75479-3 0  9992
2 57190  97.6451  18.2125 0013650  93.3122 266.9667 15.07470859 22574
SITRO-AIS 6 (CHIRKIN)   
1 57192U 23091AC  23328.52031917  .00007816  00000+0  55301-3 0  9993
2 57192  97.6458  17.7091 0020417 101.3392 259.0129 15.04958005 22530
SITRO-AIS 8 (ANOKHIN)   
1 57193U 23091AD  23328.58134725  .00007354  00000+0  51937-3 0  9999
2 57193  97.6450  17.7787 0019965 102.3221 258.0242 15.05058483 22541
SITRO-AIS 7 (FARTUSHNIY)
1 57194U 23091AE  23328.58645051  .00007120  00000+0  50475-3 0  9996
2 57194  97.6455  17.7726 0020261 101.6421 258.7081 15.04923845 22545
AVION KALUGA 650        
1 57195U 23091AF  23328.55156477  .00006016  00000+0  42004-3 0  9995
2 57195  97.6498  18.0481 0015509  92.1466 268.1537 15.05629105 22552
HORS 2                  
1 57196U 23091AG  23328.58819346  .00007773  00000+0  53149-3 0  9993
2 57196  97.6477  18.1222 0015542  91.3534 268.9474 15.06308860 22560
A-SEANSAT-PG1           
1 57197U 23091AH  23328.58065641  .00008659  00000+0  58924-3 0  9995
2 57197  97.6455  18.0868 0015044  93.7065 266.5883 15.06460958 22569
YARILO 3                
1 57198U 23091AJ  23328.57493573  .00016850  00000+0  10880-2 0  9994
2 57198  97.6501  18.3503 0014233  92.5849 267.7009 15.08239681 22570
SITRO-AIS 10 (BURDAEV)  
1 57199U 23091AK  23328.57529221  .00009232  00000+0  62662-3 0  9997
2 57199  97.6465  18.1161 0014669  92.8044 267.4862 15.06541003 22566
SITRO-AIS 9 (SHCHUKIN)  
1 57201U 23091AM  23328.57320576  .00009027  00000+0  61261-3 0  9999
2 57201  97.6460  18.1092 0014622  92.6927 267.5974 15.06552021 22562
UTMN 2 (RS27S)          
1 57203U 23091AP  23328.57854621  .00007896  00000+0  53878-3 0  9991
2 57203  97.6469  18.1229 0015238  88.0701 272.2271 15.06387457 22560
SITRO-AIS 12 (SMIRENNIY)
1 57204U 23091AQ  23328.55827089  .00010282  00000+0  69428-3 0  9999
2 57204  97.6478  18.1492 0014561  87.5607 272.7287 15.06703625 22561
ARCCUBE 1 (RS25S)       
1 57205U 23091AR  23328.58113802  .00013053  00000+0  85663-3 0  9992
2 57205  97.6429  18.1874 0013810  94.8295 265.4510 15.07704746 22577
SITRO-AIS 11 (SHEFFER)  
1 57208U 23091AU  23328.55318394  .00009659  00000+0  65137-3 0  9996
2 57208  97.6479  18.1509 0014487  87.8553 272.4333 15.06768991 22561
H2SAT (HEINRICH HERTZ)  
1 57213U 23093A   23328.41993838  .00000008  00000+0  00000+0 0  9994
2 57213   0.0540 107.7405 0000881 106.0664   0.9861  1.00270708  1531
KUZGTU 1 (RS47S)        
1 57217U 23091AV  23328.56860469  .00008847  00000+0  62267-3 0  9991
2 57217  97.6453  17.8093 0019627  97.3021 263.0437 15.05132100 22549
MAYA-5                  
1 57419U 98067VW  23328.18171565  .00621236  16489-3  18199-2 0  9999
2 57419  51.6251 242.7648 0007398 149.6010 210.5427 15.92127728 20028
MAYA-6                  
1 57420U 98067VX  23328.15021889  .00520465  11371-3  17299-2 0  9998
2 57420  51.6235 243.3007 0006945 144.2569 215.8902 15.89684172 20017
2023-103B               
1 57422U 23103B   23327.90880777  .00867042  00000+0  15303-1 0  9991
2 57422  96.6197  43.3808 0006174  47.9382  57.1413 15.48058588 19123
VELOX-AM                
1 57482U 23109B   23328.40641578  .00012459  00000+0  60782-3 0  9990
2 57482   5.0034 110.5487 0011782 332.8414  27.1079 15.14347610 17804
NULION                  
1 57487U 23109G   23313.62160397  .00014210  00000+0  68425-3 0  9997
2 57487   5.0086 223.2235 0003068 100.9353 259.1101 15.15215402 15505
FENGYUN 3F              
1 57490U 23111A   23328.59052309  .00000177  00000+0  10473-3 0  9996
2 57490  98.7974  34.3715 0000743  43.8191 316.3043 14.19734448 16095
METEOR 2-1 DEB          
1 57492U 75064F   23318.45491769  .00005018  00000+0  25195-2 0  9998
2 57492  81.2870 216.7864 0017981 334.7604  25.2690 14.16324543268454
HJ-2F                   
1 57519U 23116A   23328.57099640  .00017255  00000+0  68322-3 0  9991
2 57519  97.3934 333.4506 0005722 258.0348 102.0249 15.25480415 16396
XRISM                   
1 57800U 23137A   23328.18975564  .00006556  00000+0  52573-3 0  9995
2 57800  31.0035 241.1902 0010385 327.4660  32.5335 14.98692897 11655
